<?xml version="1.0" encoding="UTF-8"?>
<ndm xmlns:xsi="http://www.w3.org/2001/XMLSchema-instance" xsi:noNamespaceSchemaLocation="https://sanaregistry.org/r/ndmxml_unqualified/ndmxml-2.0.0-master-2.0.xsd">
<omm id="CCSDS_OMM_VERS" version="2.0">
<header><CREATION_DATE/><ORIGINATOR/></header><body><segment><metadata><OBJECT_NAME>KUIPER-00016</OBJECT_NAME><OBJECT_ID>2025-088J</OBJECT_ID><CENTER_NAME>EARTH</CENTER_NAME><REF_FRAME>TEME</REF_FRAME><TIME_SYSTEM>UTC</TIME_SYSTEM><MEAN_ELEMENT_THEORY>SGP4</MEAN_ELEMENT_THEORY></metadata><data><meanElements><EPOCH>2025-07-19T14:00:01.999872</EPOCH><MEAN_MOTION>15.15828347</MEAN_MOTION><ECCENTRICITY>.0009615</ECCENTRICITY><INCLINATION>51.8831</INCLINATION><RA_OF_ASC_NODE>67.2660</RA_OF_ASC_NODE><ARG_OF_PERICENTER>34.7022</ARG_OF_PERICENTER><MEAN_ANOMALY>315.7493</MEAN_ANOMALY></meanElements><tleParameters><EPHEMERIS_TYPE>0</EPHEMERIS_TYPE><CLASSIFICATION_TYPE>U</CLASSIFICATION_TYPE><NORAD_CAT_ID>63732</NORAD_CAT_ID><ELEMENT_SET_NO>999</ELEMENT_SET_NO><REV_AT_EPOCH>427</REV_AT_EPOCH><BSTAR>.20863E-2</BSTAR><MEAN_MOTION_DOT>.40341E-3</MEAN_MOTION_DOT><MEAN_MOTION_DDOT>0</MEAN_MOTION_DDOT></tleParameters></data></segment></body></omm>
<omm id="CCSDS_OMM_VERS" version="2.0">
<header><CREATION_DATE/><ORIGINATOR/></header><body><segment><metadata><OBJECT_NAME>KUIPER-00018</OBJECT_NAME><OBJECT_ID>2025-088K</OBJECT_ID><CENTER_NAME>EARTH</CENTER_NAME><REF_FRAME>TEME</REF_FRAME><TIME_SYSTEM>UTC</TIME_SYSTEM><MEAN_ELEMENT_THEORY>SGP4</MEAN_ELEMENT_THEORY></metadata><data><meanElements><EPOCH>2025-07-19T08:13:09.174720</EPOCH><MEAN_MOTION>15.37160844</MEAN_MOTION><ECCENTRICITY>.0006238</ECCENTRICITY><INCLINATION>51.8682</INCLINATION><RA_OF_ASC_NODE>65.0377</RA_OF_ASC_NODE><ARG_OF_PERICENTER>40.4210</ARG_OF_PERICENTER><MEAN_ANOMALY>319.7239</MEAN_ANOMALY></meanElements><tleParameters><EPHEMERIS_TYPE>0</EPHEMERIS_TYPE><CLASSIFICATION_TYPE>U</CLASSIFICATION_TYPE><NORAD_CAT_ID>63733</NORAD_CAT_ID><ELEMENT_SET_NO>999</ELEMENT_SET_NO><REV_AT_EPOCH>1275</REV_AT_EPOCH><BSTAR>.32971E-3</BSTAR><MEAN_MOTION_DOT>.11816E-3</MEAN_MOTION_DOT><MEAN_MOTION_DDOT>0</MEAN_MOTION_DDOT></tleParameters></data></segment></body></omm>
<omm id="CCSDS_OMM_VERS" version="2.0">
<header><CREATION_DATE/><ORIGINATOR/></header><body><segment><metadata><OBJECT_NAME>KUIPER-00019</OBJECT_NAME><OBJECT_ID>2025-088L</OBJECT_ID><CENTER_NAME>EARTH</CENTER_NAME><REF_FRAME>TEME</REF_FRAME><TIME_SYSTEM>UTC</TIME_SYSTEM><MEAN_ELEMENT_THEORY>SGP4</MEAN_ELEMENT_THEORY></metadata><data><meanElements><EPOCH>2025-07-19T00:14:07.107072</EPOCH><MEAN_MOTION>15.36996598</MEAN_MOTION><ECCENTRICITY>.0004004</ECCENTRICITY><INCLINATION>51.8686</INCLINATION><RA_OF_ASC_NODE>66.5671</RA_OF_ASC_NODE><ARG_OF_PERICENTER>55.5964</ARG_OF_PERICENTER><MEAN_ANOMALY>304.5401</MEAN_ANOMALY></meanElements><tleParameters><EPHEMERIS_TYPE>0</EPHEMERIS_TYPE><CLASSIFICATION_TYPE>U</CLASSIFICATION_TYPE><NORAD_CAT_ID>63734</NORAD_CAT_ID><ELEMENT_SET_NO>999</ELEMENT_SET_NO><REV_AT_EPOCH>1270</REV_AT_EPOCH><BSTAR>.35247E-3</BSTAR><MEAN_MOTION_DOT>.12589E-3</MEAN_MOTION_DOT><MEAN_MOTION_DDOT>0</MEAN_MOTION_DDOT></tleParameters></data></segment></body></omm>
<omm id="CCSDS_OMM_VERS" version="2.0">
<header><CREATION_DATE/><ORIGINATOR/></header><body><segment><metadata><OBJECT_NAME>KUIPER-00020</OBJECT_NAME><OBJECT_ID>2025-088M</OBJECT_ID><CENTER_NAME>EARTH</CENTER_NAME><REF_FRAME>TEME</REF_FRAME><TIME_SYSTEM>UTC</TIME_SYSTEM><MEAN_ELEMENT_THEORY>SGP4</MEAN_ELEMENT_THEORY></metadata><data><meanElements><EPOCH>2025-07-19T14:00:01.999872</EPOCH><MEAN_MOTION>15.31999150</MEAN_MOTION><ECCENTRICITY>.0007247</ECCENTRICITY><INCLINATION>51.8708</INCLINATION><RA_OF_ASC_NODE>64.3347</RA_OF_ASC_NODE><ARG_OF_PERICENTER>42.4137</ARG_OF_PERICENTER><MEAN_ANOMALY>343.6197</MEAN_ANOMALY></meanElements><tleParameters><EPHEMERIS_TYPE>0</EPHEMERIS_TYPE><CLASSIFICATION_TYPE>U</CLASSIFICATION_TYPE><NORAD_CAT_ID>63735</NORAD_CAT_ID><ELEMENT_SET_NO>999</ELEMENT_SET_NO><REV_AT_EPOCH>587</REV_AT_EPOCH><BSTAR>-.13844E-1</BSTAR><MEAN_MOTION_DOT>-.411953E-2</MEAN_MOTION_DOT><MEAN_MOTION_DDOT>0</MEAN_MOTION_DDOT></tleParameters></data></segment></body></omm>
<omm id="CCSDS_OMM_VERS" version="2.0">
<header><CREATION_DATE/><ORIGINATOR/></header><body><segment><metadata><OBJECT_NAME>KUIPER-00021</OBJECT_NAME><OBJECT_ID>2025-088N</OBJECT_ID><CENTER_NAME>EARTH</CENTER_NAME><REF_FRAME>TEME</REF_FRAME><TIME_SYSTEM>UTC</TIME_SYSTEM><MEAN_ELEMENT_THEORY>SGP4</MEAN_ELEMENT_THEORY></metadata><data><meanElements><EPOCH>2025-07-19T14:00:01.999872</EPOCH><MEAN_MOTION>15.29669639</MEAN_MOTION><ECCENTRICITY>.0004783</ECCENTRICITY><INCLINATION>51.8696</INCLINATION><RA_OF_ASC_NODE>64.6140</RA_OF_ASC_NODE><ARG_OF_PERICENTER>49.1150</ARG_OF_PERICENTER><MEAN_ANOMALY>204.0235</MEAN_ANOMALY></meanElements><tleParameters><EPHEMERIS_TYPE>0</EPHEMERIS_TYPE><CLASSIFICATION_TYPE>U</CLASSIFICATION_TYPE><NORAD_CAT_ID>63736</NORAD_CAT_ID><ELEMENT_SET_NO>999</ELEMENT_SET_NO><REV_AT_EPOCH>572</REV_AT_EPOCH><BSTAR>.15591E-2</BSTAR><MEAN_MOTION_DOT>.45398E-3</MEAN_MOTION_DOT><MEAN_MOTION_DDOT>0</MEAN_MOTION_DDOT></tleParameters></data></segment></body></omm>
<omm id="CCSDS_OMM_VERS" version="2.0">
<header><CREATION_DATE/><ORIGINATOR/></header><body><segment><metadata><OBJECT_NAME>KUIPER-00023</OBJECT_NAME><OBJECT_ID>2025-088P</OBJECT_ID><CENTER_NAME>EARTH</CENTER_NAME><REF_FRAME>TEME</REF_FRAME><TIME_SYSTEM>UTC</TIME_SYSTEM><MEAN_ELEMENT_THEORY>SGP4</MEAN_ELEMENT_THEORY></metadata><data><meanElements><EPOCH>2025-07-19T14:00:01.999872</EPOCH><MEAN_MOTION>15.26863794</MEAN_MOTION><ECCENTRICITY>.0008769</ECCENTRICITY><INCLINATION>51.8703</INCLINATION><RA_OF_ASC_NODE>65.0912</RA_OF_ASC_NODE><ARG_OF_PERICENTER>44.4603</ARG_OF_PERICENTER><MEAN_ANOMALY>344.6458</MEAN_ANOMALY></meanElements><tleParameters><EPHEMERIS_TYPE>0</EPHEMERIS_TYPE><CLASSIFICATION_TYPE>U</CLASSIFICATION_TYPE><NORAD_CAT_ID>63737</NORAD_CAT_ID><ELEMENT_SET_NO>999</ELEMENT_SET_NO><REV_AT_EPOCH>230</REV_AT_EPOCH><BSTAR>-.8998E-2</BSTAR><MEAN_MOTION_DOT>-.23408E-2</MEAN_MOTION_DOT><MEAN_MOTION_DDOT>0</MEAN_MOTION_DDOT></tleParameters></data></segment></body></omm>
<omm id="CCSDS_OMM_VERS" version="2.0">
<header><CREATION_DATE/><ORIGINATOR/></header><body><segment><metadata><OBJECT_NAME>KUIPER-00024</OBJECT_NAME><OBJECT_ID>2025-088Q</OBJECT_ID><CENTER_NAME>EARTH</CENTER_NAME><REF_FRAME>TEME</REF_FRAME><TIME_SYSTEM>UTC</TIME_SYSTEM><MEAN_ELEMENT_THEORY>SGP4</MEAN_ELEMENT_THEORY></metadata><data><meanElements><EPOCH>2025-07-19T08:08:02.317344</EPOCH><MEAN_MOTION>15.38285649</MEAN_MOTION><ECCENTRICITY>.0002236</ECCENTRICITY><INCLINATION>51.8728</INCLINATION><RA_OF_ASC_NODE>64.3062</RA_OF_ASC_NODE><ARG_OF_PERICENTER>94.0235</ARG_OF_PERICENTER><MEAN_ANOMALY>266.1008</MEAN_ANOMALY></meanElements><tleParameters><EPHEMERIS_TYPE>0</EPHEMERIS_TYPE><CLASSIFICATION_TYPE>U</CLASSIFICATION_TYPE><NORAD_CAT_ID>63738</NORAD_CAT_ID><ELEMENT_SET_NO>999</ELEMENT_SET_NO><REV_AT_EPOCH>1323</REV_AT_EPOCH><BSTAR>.27244E-3</BSTAR><MEAN_MOTION_DOT>.10061E-3</MEAN_MOTION_DOT><MEAN_MOTION_DDOT>0</MEAN_MOTION_DDOT></tleParameters></data></segment></body></omm>
<omm id="CCSDS_OMM_VERS" version="2.0">
<header><CREATION_DATE/><ORIGINATOR/></header><body><segment><metadata><OBJECT_NAME>KUIPER-00025</OBJECT_NAME><OBJECT_ID>2025-088R</OBJECT_ID><CENTER_NAME>EARTH</CENTER_NAME><REF_FRAME>TEME</REF_FRAME><TIME_SYSTEM>UTC</TIME_SYSTEM><MEAN_ELEMENT_THEORY>SGP4</MEAN_ELEMENT_THEORY></metadata><data><meanElements><EPOCH>2025-07-19T14:37:48.690048</EPOCH><MEAN_MOTION>15.36312128</MEAN_MOTION><ECCENTRICITY>.0007679</ECCENTRICITY><INCLINATION>51.8601</INCLINATION><RA_OF_ASC_NODE>63.8204</RA_OF_ASC_NODE><ARG_OF_PERICENTER>58.2162</ARG_OF_PERICENTER><MEAN_ANOMALY>301.9571</MEAN_ANOMALY></meanElements><tleParameters><EPHEMERIS_TYPE>0</EPHEMERIS_TYPE><CLASSIFICATION_TYPE>U</CLASSIFICATION_TYPE><NORAD_CAT_ID>63739</NORAD_CAT_ID><ELEMENT_SET_NO>999</ELEMENT_SET_NO><REV_AT_EPOCH>1312</REV_AT_EPOCH><BSTAR>-.54055E-2</BSTAR><MEAN_MOTION_DOT>-.190174E-2</MEAN_MOTION_DOT><MEAN_MOTION_DDOT>0</MEAN_MOTION_DDOT></tleParameters></data></segment></body></omm>

</ndm>
