KUIPER-00016            
1 63732U 25088J   25200.58335648  .00040341  00000+0  20863-2 0  9997
2 63732  51.8831  67.2660 0009615  34.7022 315.7493 15.15828347  4274
KUIPER-00018            
1 63733U 25088K   25200.34246730  .00011816  00000+0  32971-3 0  9994
2 63733  51.8682  65.0377 0006238  40.4210 319.7239 15.37160844 12750
KUIPER-00019            
1 63734U 25088L   25200.00980448  .00012589  00000+0  35247-3 0  9996
2 63734  51.8686  66.5671 0004004  55.5964 304.5401 15.36996598 12700
KUIPER-00020            
1 63735U 25088M   25200.58335648 -.00411953  00000+0 -13844-1 0  9993
2 63735  51.8708  64.3347 0007247  42.4137 343.6197 15.31999150  5879
KUIPER-00021            
1 63736U 25088N   25200.58335648  .00045398  00000+0  15591-2 0  9990
2 63736  51.8696  64.6140 0004783  49.1150 204.0235 15.29669639  5721
KUIPER-00023            
1 63737U 25088P   25200.58335648 -.00234080  00000+0 -89980-2 0  9994
2 63737  51.8703  65.0912 0008769  44.4603 344.6458 15.26863794  2306
KUIPER-00024            
1 63738U 25088Q   25200.33891571  .00010061  00000+0  27244-3 0  9995
2 63738  51.8728  64.3062 0002236  94.0235 266.1008 15.38285649 13230
KUIPER-00025            
1 63739U 25088R   25200.60959132 -.00190174  00000+0 -54055-2 0  9999
2 63739  51.8601  63.8204 0007679  58.2162 301.9571 15.36312128 13122
